IRIDIUM 921             
1 24873U 97034E   24196.73488211  .00034539  00000+0  82705-3 0  9991
2 24873  86.3796 274.4555 0006003 135.4896 224.6842 15.41270547479422
IRIDIUM 26              
1 24903U 97043A   24196.70589383  .00000592  00000+0  19535-3 0  9997
2 24903  86.3941 252.2074 0002431  96.9884 263.1590 14.36434436408283
IRIDIUM 22              
1 24907U 97043E   24196.78285923  .00000588  00000+0  19834-3 0  9999
2 24907  86.3944 255.4346 0002235  93.2895 266.8557 14.35322067408357
DUMMY MASS 1            
1 24925U 97048A   24196.72996849  .00000763  00000+0  83608-4 0  9990
2 24925  86.3349 291.2625 0004465 258.4165 101.6558 14.86283581454997
DUMMY MASS 2            
1 24926U 97048B   24197.51178971  .00000795  00000+0  87710-4 0  9990
2 24926  86.3349 292.4497 0005238 271.2883  88.7741 14.86042560455133
IRIDIUM 29              
1 24944U 97051A   24196.77711087  .00000718  00000+0  24156-3 0  9991
2 24944  86.3953 285.3371 0001967  93.6345 266.5077 14.35773346404847
IRIDIUM 33              
1 24946U 97051C   24197.31817196  .00000541  00000+0  18524-3 0  9998
2 24946  86.3866 284.3598 0010107  97.1457 263.0888 14.34417494404458
IRIDIUM 28              
1 24948U 97051E   24197.18058882  .00000721  00000+0  23813-3 0  9991
2 24948  86.3956 282.8746 0002634  97.2272 262.9224 14.36728495405518
